NORAD_CAT_ID,OBJECT_NAME,OBJECT_TYPE,EPOCH,MEAN_MOTION,ECCENTRICITY,INCLINATION,RA_OF_ASC_NODE,ARG_OF_PERICENTER,MEAN_ANOMALY,BSTAR,MEAN_MOTION_DOT,MEAN_MOTION_DDOT,TLE_LINE0,TLE_LINE1,TLE_LINE2,SEMIMAJOR_AXIS,PERIOD,APOGEE,PERIGEE,DECAYED
55774.0,STARLINK-5812,PAYLOAD,2023-05-16 12:51:32,15.69929547,0.0003564,70.001,307.7682,267.8363,92.2425,5.237e-05,6.09e-05,0.0,0 STARLINK-5812,1 55774U 23028AK  23136.53579100  .00006090  00000-0  52370-4 0  9994,2 55774  70.0010 307.7682 0003564 267.8363  92.2425 15.69929547 12255,6737.236,91.724,361.502,356.699,0.0
55774.0,STARLINK-5812,PAYLOAD,2023-05-16 17:26:47,15.69934366,0.0003979,69.9999,307.2293,273.1425,86.9315,6.1839e-05,7.233e-05,0.0,0 STARLINK-5812,1 55774U 23028AK  23136.72693989  .00007233  00000-0  61839-4 0  9997,2 55774  69.9999 307.2293 0003979 273.1425  86.9315 15.69934366 12275,6737.222,91.724,361.768,356.406,0.0
55774.0,STARLINK-5812,PAYLOAD,2023-05-17 10:16:04,15.69925115,0.0003885,70.0007,305.2585,275.5165,84.5588,2.6002e-05,2.915e-05,0.0,0 STARLINK-5812,1 55774U 23028AK  23137.42782626  .00002915  00000-0  26002-4 0  9997,2 55774  70.0007 305.2585 0003885 275.5165  84.5588 15.69925115 12383,6737.248,91.724,361.731,356.496,0.0
55774.0,STARLINK-5812,PAYLOAD,2023-05-17 20:58:19,15.69930851,0.0003811,69.9996,304.0024,279.5111,80.5654,6.4226e-05,7.519e-05,0.0,0 STARLINK-5812,1 55774U 23028AK  23137.87384259  .00007519  00000-0  64226-4 0  9991,2 55774  69.9996 304.0024 0003811 279.5111  80.5654 15.69930851 12468,6737.232,91.724,361.664,356.529,0.0
55774.0,STARLINK-5812,PAYLOAD,2023-05-18 12:15:51,15.69925368,0.0003632,69.9994,302.2115,272.4341,87.6439,1.5932e-05,1.703e-05,0.0,0 STARLINK-5812,1 55774U 23028AK  23138.51100955  .00001703  00000-0  15932-4 0  9991,2 55774  69.9994 302.2115 0003632 272.4341  87.6439 15.69925368 12551,6737.248,91.724,361.559,356.666,0.0
55774.0,STARLINK-5812,PAYLOAD,2023-05-19 17:19:08,15.69927034,0.0003784,69.9997,298.809,270.0163,90.0599,3.0056e-05,3.403e-05,0.0,0 STARLINK-5812,1 55774U 23028AK  23139.72162789  .00003403  00000-0  30056-4 0  9991,2 55774  69.9997 298.8090 0003784 270.0163  90.0599 15.69927034 12748,6737.243,91.724,361.657,356.558,0.0
55774.0,STARLINK-5812,PAYLOAD,2023-05-19 20:22:38,15.69931912,0.0003878,70.0008,298.4495,275.2614,84.8139,2.929e-05,3.312e-05,0.0,0 STARLINK-5812,1 55774U 23028AK  23139.84905973  .00003312  00000-0  29290-4 0  9991,2 55774  70.0008 298.4495 0003878 275.2614  84.8139 15.69931912 12775,6737.229,91.724,361.706,356.481,0.0
55774.0,STARLINK-5812,PAYLOAD,2023-05-20 19:18:54,15.6994751,0.0003761,70.0007,295.762,274.5552,85.5214,6.6992e-05,7.858e-05,0.0,0 STARLINK-5812,1 55774U 23028AK  23140.80480264  .00007858  00000-0  66992-4 0  9999,2 55774  70.0007 295.7620 0003761 274.5552  85.5214 15.69947510 12928,6737.184,91.723,361.583,356.515,0.0
55774.0,STARLINK-5812,PAYLOAD,2023-05-21 16:43:27,15.69924716,0.0003601,70.0011,293.2546,276.5309,83.5476,3.2313e-05,3.674e-05,0.0,0 STARLINK-5812,1 55774U 23028AK  23141.69685142  .00003674  00000-0  32313-4 0  9991,2 55774  70.0011 293.2546 0003601 276.5309  83.5476 15.69924716 13054,6737.249,91.724,361.54,356.688,0.0
55774.0,STARLINK-5812,PAYLOAD,2023-05-21 19:46:58,15.69925097,0.0003429,70.0019,292.8976,274.9945,85.0859,5.546e-05,6.461e-05,0.0,0 STARLINK-5812,1 55774U 23028AK  23141.82428490  .00006461  00000-0  55460-4 0  9992,2 55774  70.0019 292.8976 0003429 274.9945  85.0859 15.69925097 13088,6737.248,91.724,361.423,356.803,0.0
55774.0,STARLINK-5812,PAYLOAD,2023-05-22 03:25:43,15.69950403,0.0003486,70.0014,292.0005,272.521,87.5587,0.00017466,0.00020864,0.0,0 STARLINK-5812,1 55774U 23028AK  23142.14286360  .00020864  00000-0  17466-3 0  9992,2 55774  70.0014 292.0005 0003486 272.5210  87.5587 15.69950403 13129,6737.176,91.723,361.389,356.692,0.0
55774.0,STARLINK-5812,PAYLOAD,2023-05-22 09:32:44,15.69929554,0.0003507,70.0014,291.2831,271.5931,88.4863,0.00016423,0.00019585,0.0,0 STARLINK-5812,1 55774U 23028AK  23142.39773204  .00019585  00000-0  16423-3 0  9997,2 55774  70.0014 291.2831 0003507 271.5931  88.4863 15.69929554 13164,6737.236,91.724,361.463,356.738,0.0
55774.0,STARLINK-5812,PAYLOAD,2023-05-22 11:04:29,15.69926318,0.0003195,70.001,291.1043,268.3155,91.7675,0.00012508,0.00014855,0.0,0 STARLINK-5812,1 55774U 23028AK  23142.46144869  .00014855  00000-0  12508-3 0  9999,2 55774  70.0010 291.1043 0003195 268.3155  91.7675 15.69926318 13184,6737.245,91.724,361.262,356.957,0.0
55774.0,STARLINK-5812,PAYLOAD,2023-05-22 14:07:59,15.69927829,0.0003806,70.0008,290.7475,274.6601,85.4159,3.6009e-05,4.12e-05,0.0,0 STARLINK-5812,1 55774U 23028AK  23142.58888164  .00004120  00000-0  36009-4 0  9992,2 55774  70.0008 290.7475 0003806 274.6601  85.4159 15.69927829 13196,6737.24,91.724,361.67,356.541,0.0
55774.0,STARLINK-5812,PAYLOAD,2023-05-22 20:14:59,15.69925305,0.0003802,70.0006,290.031,273.5711,86.505,1.1324e-05,1.149e-05,0.0,0 STARLINK-5812,1 55774U 23028AK  23142.84374833  .00001149  00000-0  11324-4 0  9995,2 55774  70.0006 290.0310 0003802 273.5711  86.5050 15.69925305 13246,6737.248,91.724,361.674,356.551,0.0
55774.0,STARLINK-5812,PAYLOAD,2023-05-23 13:04:16,15.69923284,0.0003809,70.0006,288.0601,274.6026,85.4734,2.8245e-05,3.185e-05,0.0,0 STARLINK-5812,1 55774U 23028AK  23143.54463422  .00003185  00000-0  28245-4 0  9998,2 55774  70.0006 288.0601 0003809 274.6026  85.4734 15.69923284 13346,6737.253,91.724,361.685,356.552,0.0
55774.0,STARLINK-5812,PAYLOAD,2023-05-23 19:11:16,15.69924682,0.0003734,69.9985,287.344,274.6707,85.4062,1.6152e-05,1.73e-05,0.0,0 STARLINK-5812,1 55774U 23028AK  23143.79950017  .00001730  00000-0  16152-4 0  9994,2 55774  69.9985 287.3440 0003734 274.6707  85.4062 15.69924682 13397,6737.249,91.724,361.63,356.599,0.0
55774.0,STARLINK-5812,PAYLOAD,2023-05-25 18:35:35,15.69923933,0.0003537,69.9987,281.7906,276.5357,83.5436,3.7324e-06,2.36e-06,0.0,0 STARLINK-5812,1 55774U 23028AK  23145.77471910  .00000236  00000-0  37324-5 0  9999,2 55774  69.9987 281.7906 0003537 276.5357  83.5436 15.69923933 13692,6737.252,91.724,361.5,356.734,0.0
55774.0,STARLINK-5812,PAYLOAD,2023-05-26 11:24:52,15.69922432,0.0003051,69.999,279.82,280.7529,79.3323,1.2093e-06,-6.7e-07,0.0,0 STARLINK-5812,1 55774U 23028AK  23146.47560642 -.00000067  00000-0  12093-5 0  9997,2 55774  69.9990 279.8200 0003051 280.7529  79.3323 15.69922432 13815,6737.256,91.724,361.176,357.065,0.0
55774.0,STARLINK-5812,PAYLOAD,2023-05-26 17:31:46,15.70019997,0.0007818,69.9988,279.1034,309.4413,50.609,2.8503e-05,3.231e-05,0.0,0 STARLINK-5812,1 55774U 23028AK  23146.73040478  .00003231  00000-0  28503-4 0  9993,2 55774  69.9988 279.1034 0007818 309.4413  50.6090 15.70019997 13847,6736.977,91.719,364.109,353.575,0.0
55774.0,STARLINK-5812,PAYLOAD,2023-05-26 19:03:28,15.70065363,0.0004472,69.9991,278.9243,279.6611,80.408,0.00014577,0.00017458,0.0,0 STARLINK-5812,1 55774U 23028AK  23146.79407424  .00017458  00000-0  14577-3 0  9998,2 55774  69.9991 278.9243 0004472 279.6611  80.4080 15.70065363 13861,6736.847,91.716,361.725,355.699,0.0
55774.0,STARLINK-5812,PAYLOAD,2023-05-27 17:59:54,15.6992413,0.0003436,69.9989,276.2371,272.2653,87.8149,9.5524e-06,9.36e-06,0.0,0 STARLINK-5812,1 55774U 23028AK  23147.74993655  .00000936  00000-0  95524-5 0  9996,2 55774  69.9989 276.2371 0003436 272.2653  87.8149 15.69924130 14003,6737.251,91.724,361.431,356.801,0.0
55774.0,STARLINK-5812,PAYLOAD,2023-05-28 18:27:56,15.69932453,0.0003626,69.998,273.3701,274.3883,85.6899,1.1997e-05,1.23e-05,0.0,0 STARLINK-5812,1 55774U 23028AK  23148.76939843  .00001230  00000-0  11997-4 0  9997,2 55774  69.9980 273.3701 0003626 274.3883  85.6899 15.69932453 14160,6737.227,91.724,361.535,356.649,0.0
55774.0,STARLINK-5812,PAYLOAD,2023-05-29 09:45:28,15.69915558,0.0003211,69.9991,271.5784,280.7464,79.337,-1.3352e-06,-3.73e-06,0.0,0 STARLINK-5812,1 55774U 23028AK  23149.40658154 -.00000373  00000-0 -13352-5 0  9999,2 55774  69.9991 271.5784 0003211 280.7464  79.3370 15.69915558 14261,6737.276,91.725,361.304,356.977,0.0
55774.0,STARLINK-5812,PAYLOAD,2023-05-29 11:17:13,15.69913335,0.0003287,69.9987,271.4011,272.7704,87.3115,-3.4243e-06,-6.24e-06,0.0,0 STARLINK-5812,1 55774U 23028AK  23149.47029935 -.00000624  00000-0 -34243-5 0  9996,2 55774  69.9987 271.4011 0003287 272.7704  87.3115 15.69913335 14288,6737.282,91.725,361.361,356.932,0.0
55774.0,STARLINK-5812,PAYLOAD,2023-05-29 17:24:14,15.69915989,0.0003113,69.9988,270.6836,273.1432,86.9408,-1.635e-06,-4.09e-06,0.0,0 STARLINK-5812,1 55774U 23028AK  23149.72516541 -.00000409  00000-0 -16350-5 0  9998,2 55774  69.9988 270.6836 0003113 273.1432  86.9408 15.69915989 14328,6737.274,91.725,361.237,357.042,0.0
55774.0,STARLINK-5812,PAYLOAD,2023-05-30 01:02:58,15.6992928,0.0003714,69.999,269.7886,266.2009,93.8762,1.5414e-05,1.641e-05,0.0,0 STARLINK-5812,1 55774U 23028AK  23150.04373517  .00001641  00000-0  15414-4 0  9995,2 55774  69.9990 269.7886 0003714 266.2009  93.8762 15.69929280 14368,6737.236,91.724,361.604,356.599,0.0
55774.0,STARLINK-5812,PAYLOAD,2023-05-30 10:13:29,15.69932861,0.0003576,69.9983,268.7149,267.53,92.5486,2.1975e-06,5.1e-07,0.0,0 STARLINK-5812,1 55774U 23028AK  23150.42603670  .00000051  00000-0  21975-5 0  9997,2 55774  69.9983 268.7149 0003576 267.5300  92.5486 15.69932861 14431,6737.226,91.724,361.5,356.682,0.0
55774.0,STARLINK-5812,PAYLOAD,2023-05-30 17:52:15,15.69929917,0.0003524,69.9982,267.8185,267.8519,92.2273,1.3126e-06,-5.5e-07,0.0,0 STARLINK-5812,1 55774U 23028AK  23150.74462077 -.00000055  00000-0  13126-5 0  9990,2 55774  69.9982 267.8185 0003524 267.8519  92.2273 15.69929917 14482,6737.235,91.724,361.474,356.725,0.0
55774.0,STARLINK-5812,PAYLOAD,2023-05-31 01:31:01,15.69920554,0.000316,69.9992,266.9217,266.7112,93.3722,1.043e-05,1.041e-05,0.0,0 STARLINK-5812,1 55774U 23028AK  23151.06320872  .00001041  00000-0  10430-4 0  9991,2 55774  69.9992 266.9217 0003160 266.7112  93.3722 15.69920554 14526,6737.261,91.724,361.255,356.997,0.0
